MALLIGYONG-1            
1 58400U 23179A   24280.13014326  .00015369  00000+0  69223-3 0  9993
2 58400  97.3844 165.0409 0009967  53.8399 306.3758 15.21107760 48595
